GPS BIIA-23 (PRN 18)    
1 22877U 93068A   18247.70388647  .00000003  00000-0  00000+0 0  9999
2 22877  54.4811  80.2405 0147221  76.7348 138.6510  2.00568366182148
GPS BIIR-2  (PRN 13)    
1 24876U 97035A   18249.29479774  .00000014  00000-0  00000+0 0  9998
2 24876  55.4824 209.5861 0031284  84.1146 276.2157  2.00564220154775
GPS BIIR-3  (PRN 11)    
1 25933U 99055A   18249.37185064 -.00000026  00000-0  00000+0 0  9996
2 25933  51.9450  58.1547 0167946 103.8643 238.6108  2.00565211138592
GPS BIIR-4  (PRN 20)    
1 26360U 00025A   18249.57586494 -.00000014  00000-0  00000+0 0  9991
2 26360  53.2239 136.2718 0040323 121.4939  54.8763  2.00562992134288
GPS BIIR-5  (PRN 28)    
1 26407U 00040A   18249.38414532 -.00000051  00000-0  00000+0 0  9993
2 26407  56.4346 327.7208 0197930 273.1647 102.4819  2.00562361132968
GPS BIIR-6  (PRN 14)    
1 26605U 00071A   18249.57435096  .00000006  00000-0  00000+0 0  9995
2 26605  55.0557 207.1347 0102854 249.1411 171.0253  2.00569159130565
GPS BIIR-8  (PRN 16)    
1 27663U 03005A   18246.62301227 -.00000053  00000-0  00000+0 0  9994
2 27663  56.4996 327.5902 0098591  28.7980 273.3683  2.00562086114275
GPS BIIR-9  (PRN 21)    
1 27704U 03010A   18247.72664000  .00000002  00000-0  00000+0 0  9992
2 27704  54.1527  79.8004 0245384 272.2544  66.7993  2.00567723113092
GPS BIIR-10 (PRN 22)    
1 28129U 03058A   18248.99195021 -.00000019  00000-0  00000+0 0  9997
2 28129  53.0366 139.1355 0073383 274.6939  84.5280  2.00557216107810
GPS BIIR-11 (PRN 19)    
1 28190U 04009A   18249.50559800 -.00000062  00000-0  00000+0 0  9997
2 28190  56.2018  28.3014 0094937  72.5376 296.8674  2.00558035106001
GPS BIIR-12 (PRN 23)    
1 28361U 04023A   18249.36542578  .00000000  00000-0  00000+0 0  9992
2 28361  54.0587 201.8015 0128263 227.2340 317.3469  2.00555623104084
GPS BIIR-13 (PRN 02)    
1 28474U 04045A   18247.86903402  .00000003  00000-0  00000+0 0  9994
2 28474  54.5192  79.4391 0182270 255.0330 287.6542  2.00548038101415
GPS BIIRM-1 (PRN 17)    
1 28874U 05038A   18248.94771837 -.00000061  00000-0  00000+0 0  9991
2 28874  56.3390  25.6432 0127726 258.3880  94.3406  2.00571494 94841
GPS BIIRM-2 (PRN 31)    
1 29486U 06042A   18249.19720878  .00000055  00000-0  00000+0 0  9996
2 29486  55.1382 264.4211 0088936 351.9068 102.7466  2.00556507 87563
GPS BIIRM-3 (PRN 12)    
1 29601U 06052A   18248.50768644 -.00000050  00000-0  00000+0 0  9999
2 29601  56.4751 326.4330 0068312  57.8111 302.9024  2.00551777 86460
GPS BIIRM-4 (PRN 15)    
1 32260U 07047A   18248.33587293  .00000007  00000-0  00000+0 0  9990
2 32260  53.1827 197.7936 0104597  39.4151 321.3176  2.00547188 79848
GPS BIIRM-5 (PRN 29)    
1 32384U 07062A   18249.12062292 -.00000061  00000-0  00000+0 0  9990
2 32384  56.4152  26.2520 0005752  90.3948 254.6981  2.00568218 78589
GPS BIIRM-6 (PRN 07)    
1 32711U 08012A   18249.23792836  .00000054  00000-0  00000+0 0  9997
2 32711  54.8733 263.6783 0122064 217.8777 141.3019  2.00566893 76770
GPS BIIRM-8 (PRN 05)    
1 35752U 09043A   18248.95200779 -.00000019  00000-0  00000+0 0  9990
2 35752  54.3372 141.4354 0054703  36.6866 143.4965  2.00551183 66351
GPS BIIF-1  (PRN 25)    
1 36585U 10022A   18247.43468508 -.00000046  00000-0  00000+0 0  9992
2 36585  55.7637 322.9799 0072679  48.5028 223.0844  2.00572584 60575
GPS BIIF-2  (PRN 01)    
1 37753U 11036A   18249.44462998  .00000011  00000-0  00000+0 0  9997
2 37753  55.7185  82.9984 0079590  38.1683 329.7296  2.00564627 52295
GPS BIIF-3  (PRN 24)    
1 38833U 12053A   18247.92221475  .00000062  00000-0  00000+0 0  9997
2 38833  53.9053 260.2104 0070757  28.9285 331.5039  2.00568142 43332
GPS BIIF-4  (PRN 27)    
1 39166U 13023A   18249.27869706 -.00000068  00000-0  00000+0 0  9997
2 39166  56.0330  22.5000 0059282  24.1415 336.1389  2.00561644 38895
GPS BIIF-5  (PRN 30)    
1 39533U 14008A   18249.27866565  .00000049  00000-0  00000+0 0  9997
2 39533  54.0460 265.5154 0036709 192.7008 167.2539  2.00560919 33252
GPS BIIF-6  (PRN 06)    
1 39741U 14026A   18249.05743223  .00000011  00000-0  00000+0 0  9998
2 39741  55.7007  82.5372 0011810 291.9277  68.0207  2.00561007 31531
GPS BIIF-7  (PRN 09)    
1 40105U 14045A   18249.14468746  .00000004  00000-0  00000+0 0  9991
2 40105  54.5849 201.9587 0007637 103.8713 256.1871  2.00577456 29989
GPS BIIF-8  (PRN 03)    
1 40294U 14068A   18249.02315763 -.00000018  00000-0  00000+0 0  9998
2 40294  55.0886 142.7625 0015861  27.8595 332.2801  2.00562006 28209
GPS BIIF-9  (PRN 26)    
1 40534U 15013A   18248.65896498 -.00000044  00000-0  00000+0 0  9992
2 40534  54.7011 321.5690 0028701 359.3430   0.7122  2.00558759 25265
GPS BIIF-10  (PRN 08)   
1 40730U 15033A   18249.31742541 -.00000070  00000-0  00000+0 0  9994
2 40730  55.5621  21.9676 0036002 333.4111  26.4092  2.00569945 23039
GPS BIIF-11  (PRN 10)   
1 41019U 15062A   18248.37241020 -.00000019  00000-0  00000+0 0  9991
2 41019  55.0927 142.5939 0038316 203.1648 156.7157  2.00564390 20837
GPS BIIF-12  (PRN 32)   
1 41328U 16007A   18248.46076925  .00000014  00000-0  00000+0 0  9998
2 41328  54.8341 202.2985 0024448 219.1119 140.6886  2.00559997 18894
